{
  "links" : {
    "next" : "https://api.nasa.gov/neo/rest/v1/feed?start_date=2014-04-16&end_date=2014-04-16&detailed=true&api_key=t0TVs3DtDT2H8Oy2Zy8m2eVrNsAVKAexjcZXUckd",
    "prev" : "https://api.nasa.gov/neo/rest/v1/feed?start_date=2014-04-14&end_date=2014-04-14&detailed=true&api_key=t0TVs3DtDT2H8Oy2Zy8m2eVrNsAVKAexjcZXUckd",
    "self" : "https://api.nasa.gov/neo/rest/v1/feed?start_date=2014-04-15&end_date=2014-04-15&detailed=true&api_key=t0TVs3DtDT2H8Oy2Zy8m2eVrNsAVKAexjcZXUckd"
  },
  "element_count" : 6,
  "near_earth_objects" : {
    "2014-04-15" : [ {
      "links" : {
        "self" : "https://api.nasa.gov/neo/rest/v1/neo/3546703?api_key=t0TVs3DtDT2H8Oy2Zy8m2eVrNsAVKAexjcZXUckd"
      },
      "neo_reference_id" : "3546703",
      "name" : "(2010 SE)",
      "nasa_jpl_url" : "http://ssd.jpl.nasa.gov/sbdb.cgi?sstr=3546703",
      "absolute_magnitude_h" : 24.3,
      "estimated_diameter" : {
        "kilometers" : {
          "estimated_diameter_min" : 0.0366906138,
          "estimated_diameter_max" : 0.0820427065
        },
        "meters" : {
          "estimated_diameter_min" : 36.6906137531,
          "estimated_diameter_max" : 82.0427064882
        },
        "miles" : {
          "estimated_diameter_min" : 0.0227984834,
          "estimated_diameter_max" : 0.0509789586
        },
        "feet" : {
          "estimated_diameter_min" : 120.3760332259,
          "estimated_diameter_max" : 269.1689931548
        }
      },
      "is_potentially_hazardous_asteroid" : false,
      "close_approach_data" : [ {
        "close_approach_date" : "2014-04-15",
        "epoch_date_close_approach" : 1397545200000,
        "relative_velocity" : {
          "kilometers_per_second" : "23.3308815695",
          "kilometers_per_hour" : "83991.1736501071",
          "miles_per_hour" : "52188.8489827568"
        },
        "miss_distance" : {
          "astronomical" : "0.4234542492",
          "lunar" : "164.7237091064",
          "kilometers" : "63347856",
          "miles" : "39362532"
        },
        "orbiting_body" : "Earth"
      } ],
      "orbital_data" : {
        "orbit_id" : "9",
        "orbit_determination_date" : "2017-04-06 08:56:37",
        "orbit_uncertainty" : "7",
        "minimum_orbit_intersection" : ".00774014",
        "jupiter_tisserand_invariant" : "5.772",
        "epoch_osculation" : "2458000.5",
        "eccentricity" : ".2905124153295093",
        "semi_major_axis" : "1.047753983461467",
        "inclination" : "20.30808096684866",
        "ascending_node_longitude" : "175.243932229144",
        "orbital_period" : "391.7305189166984",
        "perihelion_distance" : ".7433684430549614",
        "perihelion_argument" : "280.8399332603071",
        "aphelion_distance" : "1.352139523867972",
        "perihelion_time" : "2457881.051949698388",
        "mean_anomaly" : "109.772652453777",
        "mean_motion" : ".9189991144819486",
        "equinox" : "J2000"
      }
    }, {
      "links" : {
        "self" : "https://api.nasa.gov/neo/rest/v1/neo/3664084?api_key=t0TVs3DtDT2H8Oy2Zy8m2eVrNsAVKAexjcZXUckd"
      },
      "neo_reference_id" : "3664084",
      "name" : "(2014 EZ48)",
      "nasa_jpl_url" : "http://ssd.jpl.nasa.gov/sbdb.cgi?sstr=3664084",
      "absolute_magnitude_h" : 18.8,
      "estimated_diameter" : {
        "kilometers" : {
          "estimated_diameter_min" : 0.4619074603,
          "estimated_diameter_max" : 1.0328564805
        },
        "meters" : {
          "estimated_diameter_min" : 461.9074602816,
          "estimated_diameter_max" : 1032.8564805039
        },
        "miles" : {
          "estimated_diameter_min" : 0.2870159005,
          "estimated_diameter_max" : 0.6417870641
        },
        "feet" : {
          "estimated_diameter_min" : 1515.4444719902,
          "estimated_diameter_max" : 3388.6368554964
        }
      },
      "is_potentially_hazardous_asteroid" : false,
      "close_approach_data" : [ {
        "close_approach_date" : "2014-04-15",
        "epoch_date_close_approach" : 1397545200000,
        "relative_velocity" : {
          "kilometers_per_second" : "14.3714532567",
          "kilometers_per_hour" : "51737.2317240156",
          "miles_per_hour" : "32147.5037898474"
        },
        "miss_distance" : {
          "astronomical" : "0.3215810115",
          "lunar" : "125.0950088501",
          "kilometers" : "48107836",
          "miles" : "29892822"
        },
        "orbiting_body" : "Earth"
      } ],
      "orbital_data" : {
        "orbit_id" : "88",
        "orbit_determination_date" : "2017-04-06 08:42:04",
        "orbit_uncertainty" : "3",
        "minimum_orbit_intersection" : ".264371",
        "jupiter_tisserand_invariant" : "3.289",
        "epoch_osculation" : "2458000.5",
        "eccentricity" : ".564232855848358",
        "semi_major_axis" : "2.254905923781011",
        "inclination" : "25.51210678064689",
        "ascending_node_longitude" : "178.8223431780298",
        "orbital_period" : "1236.776054445421",
        "perihelion_distance" : ".9826139147366711",
        "perihelion_argument" : "82.01389631097396",
        "aphelion_distance" : "3.52719793282535",
        "perihelion_time" : "2458057.474570011324",
        "mean_anomaly" : "343.4158778136484",
        "mean_motion" : ".2910793742375831",
        "equinox" : "J2000"
      }
    }, {
      "links" : {
        "self" : "https://api.nasa.gov/neo/rest/v1/neo/3752457?api_key=t0TVs3DtDT2H8Oy2Zy8m2eVrNsAVKAexjcZXUckd"
      },
      "neo_reference_id" : "3752457",
      "name" : "(2016 HP6)",
      "nasa_jpl_url" : "http://ssd.jpl.nasa.gov/sbdb.cgi?sstr=3752457",
      "absolute_magnitude_h" : 25.5,
      "estimated_diameter" : {
        "kilometers" : {
          "estimated_diameter_min" : 0.0211132445,
          "estimated_diameter_max" : 0.0472106499
        },
        "meters" : {
          "estimated_diameter_min" : 21.113244479,
          "estimated_diameter_max" : 47.2106498806
        },
        "miles" : {
          "estimated_diameter_min" : 0.0131191578,
          "estimated_diameter_max" : 0.0293353287
        },
        "feet" : {
          "estimated_diameter_min" : 69.2691770164,
          "estimated_diameter_max" : 154.8905885541
        }
      },
      "is_potentially_hazardous_asteroid" : false,
      "close_approach_data" : [ {
        "close_approach_date" : "2014-04-15",
        "epoch_date_close_approach" : 1397545200000,
        "relative_velocity" : {
          "kilometers_per_second" : "8.3396401828",
          "kilometers_per_hour" : "30022.7046579427",
          "miles_per_hour" : "18654.94112482"
        },
        "miss_distance" : {
          "astronomical" : "0.1007188376",
          "lunar" : "39.1796302795",
          "kilometers" : "15067324",
          "miles" : "9362401"
        },
        "orbiting_body" : "Earth"
      } ],
      "orbital_data" : {
        "orbit_id" : "7",
        "orbit_determination_date" : "2017-04-06 08:26:19",
        "orbit_uncertainty" : "7",
        "minimum_orbit_intersection" : ".00650056",
        "jupiter_tisserand_invariant" : "4.300",
        "epoch_osculation" : "2458000.5",
        "eccentricity" : ".3615131580440869",
        "semi_major_axis" : "1.590448408648119",
        "inclination" : "3.928286457588885",
        "ascending_node_longitude" : "51.13306028115208",
        "orbital_period" : "732.6183726891054",
        "perihelion_distance" : "1.015480381731545",
        "perihelion_argument" : "184.5608164243778",
        "aphelion_distance" : "2.165416435564692",
        "perihelion_time" : "2458254.904430436689",
        "mean_anomaly" : "234.9886729962295",
        "mean_motion" : ".4913881680015824",
        "equinox" : "J2000"
      }
    } ]
  }
}